{"type": "FeatureCollection", "features": [ {"type": "Feature", "properties": {"norad_id": 35661, "name": "COSMOS 2251 DEB", "group": "cosmos-2251-debris", "lat": 34.84895203611259, "lon": -131.96607113235157, "alt_km": 547.6728326167258, "timestamp": "2025-12-22T20:43:46.244527+00:00", "meta": {"OBJECT_NAME": "COSMOS 2251 DEB", "OBJECT_ID": "1993-036APC", "EPOCH": "2025-12-22T10:23:48.090336", "MEAN_MOTION": 14.86704146, "ECCENTRICITY": 0.00869572, "INCLINATION": 74.0131, "RA_OF_ASC_NODE": 60.4066, "ARG_OF_PERICENTER": 162.1436, "MEAN_ANOMALY": 198.2834, "EPHEMERIS_TYPE": 0, "CLASSIFICATION_TYPE": "U", "NORAD_CAT_ID": 35661, "ELEMENT_SET_NO": 999, "REV_AT_EPOCH": 88012, "BSTAR": 0.00078467061, "MEAN_MOTION_DOT": 7.446e-05, "MEAN_MOTION_DDOT": 0}, "tle": {"line1": "1 35661U 93036APC 25356.43319549  .00007446  00000+0  78467-3 0  9996", "line2": "2 35661  74.0131  60.4066 0086957 162.1436 198.2834 14.86704146880124"}}, "geometry": {"type": "Point", "coordinates": [-131.96607113235157, 34.84895203611259]}}, {"type": "Feature", "properties": {"norad_id": 35663, "name": "COSMOS 2251 DEB", "group": "cosmos-2251-debris", "lat": -11.06969339882505, "lon": 101.93769781772772, "alt_km": 682.4066734389253, "timestamp": "2025-12-22T20:43:46.244537+00:00", "meta": {"OBJECT_NAME": "COSMOS 2251 DEB", "OBJECT_ID": "1993-036APE", "EPOCH": "2025-12-19T23:59:07.553472", "MEAN_MOTION": 14.65779868, "ECCENTRICITY": 0.00057705, "INCLINATION": 74.0195, "RA_OF_ASC_NODE": 110.6712, "ARG_OF_PERICENTER": 187.908, "MEAN_ANOMALY": 172.1999, "EPHEMERIS_TYPE": 0, "CLASSIFICATION_TYPE": "U", "NORAD_CAT_ID": 35663, "ELEMENT_SET_NO": 999, "REV_AT_EPOCH": 73488, "BSTAR": 0.0009843987, "MEAN_MOTION_DOT": 5.342e-05, "MEAN_MOTION_DDOT": 0}, "tle": {"line1": "1 35663U 93036APE 25353.99939298  .00005342  00000+0  98440-3 0  9991", "line2": "2 35663  74.0195 110.6712 0005770 187.9080 172.1999 14.65779868734880"}}, "geometry": {"type": "Point", "coordinates": [101.93769781772772, -11.06969339882505]}}, {"type": "Feature", "properties": {"norad_id": 35667, "name": "COSMOS 2251 DEB", "group": "cosmos-2251-debris", "lat": -9.899715288928936, "lon": -56.3300004293463, "alt_km": 683.2710536356271, "timestamp": "2025-12-22T20:43:46.244547+00:00", "meta": {"OBJECT_NAME": "COSMOS 2251 DEB", "OBJECT_ID": "1993-036APJ", "EPOCH": "2025-12-21T01:06:26.178912", "MEAN_MOTION": 14.60101094, "ECCENTRICITY": 0.00192171, "INCLINATION": 74.055, "RA_OF_ASC_NODE": 124.2734, "ARG_OF_PERICENTER": 183.7599, "MEAN_ANOMALY": 176.3426, "EPHEMERIS_TYPE": 0, "CLASSIFICATION_TYPE": "U", "NORAD_CAT_ID": 35667, "ELEMENT_SET_NO": 999, "REV_AT_EPOCH": 70924, "BSTAR": 0.00075939759, "MEAN_MOTION_DOT": 3.634e-05, "MEAN_MOTION_DDOT": 0}, "tle": {"line1": "1 35667U 93036APJ 25355.04613633  .00003634  00000+0  75940-3 0  9997", "line2": "2 35667  74.0550 124.2734 0019217 183.7599 176.3426 14.60101094709242"}}, "geometry": {"type": "Point", "coordinates": [-56.3300004293463, -9.899715288928936]}}, {"type": "Feature", "properties": {"norad_id": 35668, "name": "COSMOS 2251 DEB", "group": "cosmos-2251-debris", "lat": 73.88471517776098, "lon": -76.91504317361749, "alt_km": 720.2165197069016, "timestamp": "2025-12-22T20:43:46.244556+00:00", "meta": {"OBJECT_NAME": "COSMOS 2251 DEB", "OBJECT_ID": "1993-036APK", "EPOCH": "2025-12-22T07:12:32.696352", "MEAN_MOTION": 14.64011505, "ECCENTRICITY": 0.00834358, "INCLINATION": 74.0437, "RA_OF_ASC_NODE": 202.1696, "ARG_OF_PERICENTER": 305.1672, "MEAN_ANOMALY": 54.1699, "EPHEMERIS_TYPE": 0, "CLASSIFICATION_TYPE": "U", "NORAD_CAT_ID": 35668, "ELEMENT_SET_NO": 999, "REV_AT_EPOCH": 87787, "BSTAR": 0.00022530086, "MEAN_MOTION_DOT": 1.208e-05, "MEAN_MOTION_DDOT": 0}, "tle": {"line1": "1 35668U 93036APK 25356.30037843  .00001208  00000+0  22530-3 0  9993", "line2": "2 35668  74.0437 202.1696 0083435 305.1672  54.1699 14.64011505877876"}}, "geometry": {"type": "Point", "coordinates": [-76.91504317361749, 73.88471517776098]}}, {"type": "Feature", "properties": {"norad_id": 35669, "name": "COSMOS 2251 DEB", "group": "cosmos-2251-debris", "lat": 45.697280217643815, "lon": -54.38182938797978, "alt_km": 1182.3178690183695, "timestamp": "2025-12-22T20:43:46.244566+00:00", "meta": {"OBJECT_NAME": "COSMOS 2251 DEB", "OBJECT_ID": "1993-036APL", "EPOCH": "2025-12-20T02:35:15.805248", "MEAN_MOTION": 13.57168765, "ECCENTRICITY": 0.03877863, "INCLINATION": 73.8603, "RA_OF_ASC_NODE": 147.3718, "ARG_OF_PERICENTER": 257.91, "MEAN_ANOMALY": 97.8317, "EPHEMERIS_TYPE": 0, "CLASSIFICATION_TYPE": "U", "NORAD_CAT_ID": 35669, "ELEMENT_SET_NO": 999, "REV_AT_EPOCH": 60889, "BSTAR": 0.00066721827, "MEAN_MOTION_DOT": 7.5e-06, "MEAN_MOTION_DDOT": 0}, "tle": {"line1": "1 35669U 93036APL 25354.10782182  .00000750  00000+0  66722-3 0  9995", "line2": "2 35669  73.8603 147.3718 0387786 257.9100  97.8317 13.57168765608897"}}, "geometry": {"type": "Point", "coordinates": [-54.38182938797978, 45.697280217643815]}}, {"type": "Feature", "properties": {"norad_id": 35670, "name": "COSMOS 2251 DEB", "group": "cosmos-2251-debris", "lat": 27.5884153214237, "lon": 52.612715621317484, "alt_km": 559.8576789666558, "timestamp": "2025-12-22T20:43:46.244576+00:00", "meta": {"OBJECT_NAME": "COSMOS 2251 DEB", "OBJECT_ID": "1993-036APM", "EPOCH": "2025-12-19T10:38:44.466144", "MEAN_MOTION": 14.94072625, "ECCENTRICITY": 0.0038179, "INCLINATION": 73.895, "RA_OF_ASC_NODE": 50.8731, "ARG_OF_PERICENTER": 9.8443, "MEAN_ANOMALY": 350.3478, "EPHEMERIS_TYPE": 0, "CLASSIFICATION_TYPE": "U", "NORAD_CAT_ID": 35670, "ELEMENT_SET_NO": 999, "REV_AT_EPOCH": 87827, "BSTAR": 0.00080624, "MEAN_MOTION_DOT": 8.707e-05, "MEAN_MOTION_DDOT": 0}, "tle": {"line1": "1 35670U 93036APM 25353.44357021  .00008707  00000+0  80624-3 0  9990", "line2": "2 35670  73.8950  50.8731 0038179   9.8443 350.3478 14.94072625878277"}}, "geometry": {"type": "Point", "coordinates": [52.612715621317484, 27.5884153214237]}}, {"type": "Feature", "properties": {"norad_id": 35671, "name": "COSMOS 2251 DEB", "group": "cosmos-2251-debris", "lat": -59.797009973706615, "lon": -90.16738794275209, "alt_km": 708.9293615825536, "timestamp": "2025-12-22T20:43:46.244586+00:00", "meta": {"OBJECT_NAME": "COSMOS 2251 DEB", "OBJECT_ID": "1993-036APN", "EPOCH": "2025-12-17T12:02:51.877248", "MEAN_MOTION": 14.48356669, "ECCENTRICITY": 0.00414327, "INCLINATION": 74.0178, "RA_OF_ASC_NODE": 70.3857, "ARG_OF_PERICENTER": 243.6268, "MEAN_ANOMALY": 134.9759, "EPHEMERIS_TYPE": 0, "CLASSIFICATION_TYPE": "U", "NORAD_CAT_ID": 35671, "ELEMENT_SET_NO": 999, "REV_AT_EPOCH": 86832, "BSTAR": 0.00018080216, "MEAN_MOTION_DOT": 6.55e-06, "MEAN_MOTION_DDOT": 0}, "tle": {"line1": "1 35671U 93036APN 25351.50198932  .00000655  00000+0  18080-3 0  9991", "line2": "2 35671  74.0178  70.3857 0041432 243.6268 134.9759 14.48356669868323"}}, "geometry": {"type": "Point", "coordinates": [-90.16738794275209, -59.797009973706615]}}, {"type": "Feature", "properties": {"norad_id": 35674, "name": "COSMOS 2251 DEB", "group": "cosmos-2251-debris", "lat": -23.73402564098404, "lon": -69.82798637546067, "alt_km": 648.57226271524, "timestamp": "2025-12-22T20:43:46.244596+00:00", "meta": {"OBJECT_NAME": "COSMOS 2251 DEB", "OBJECT_ID": "1993-036APR", "EPOCH": "2025-12-22T02:40:52.097376", "MEAN_MOTION": 14.54343457, "ECCENTRICITY": 0.009624, "INCLINATION": 74.0609, "RA_OF_ASC_NODE": 298.81, "ARG_OF_PERICENTER": 341.455, "MEAN_ANOMALY": 18.3112, "EPHEMERIS_TYPE": 0, "CLASSIFICATION_TYPE": "U", "NORAD_CAT_ID": 35674, "ELEMENT_SET_NO": 999, "REV_AT_EPOCH": 86247, "BSTAR": 0.0018064295, "MEAN_MOTION_DOT": 8.139e-05, "MEAN_MOTION_DDOT": 0}, "tle": {"line1": "1 35674U 93036APR 25356.11171409  .00008139  00000+0  18064-2 0  9992", "line2": "2 35674  74.0609 298.8100 0096240 341.4550  18.3112 14.54343457862477"}}, "geometry": {"type": "Point", "coordinates": [-69.82798637546067, -23.73402564098404]}}, {"type": "Feature", "properties": {"norad_id": 35701, "name": "COSMOS 2251 DEB", "group": "cosmos-2251-debris", "lat": 50.29509419936866, "lon": 85.15071856288584, "alt_km": 744.0894526880229, "timestamp": "2025-12-22T20:43:46.244606+00:00", "meta": {"OBJECT_NAME": "COSMOS 2251 DEB", "OBJECT_ID": "1993-036APW", "EPOCH": "2025-12-06T05:57:57.623904", "MEAN_MOTION": 13.80843435, "ECCENTRICITY": 0.02897209, "INCLINATION": 74.0028, "RA_OF_ASC_NODE": 313.2955, "ARG_OF_PERICENTER": 164.0681, "MEAN_ANOMALY": 196.98, "EPHEMERIS_TYPE": 0, "CLASSIFICATION_TYPE": "U", "NORAD_CAT_ID": 35701, "ELEMENT_SET_NO": 999, "REV_AT_EPOCH": 62069, "BSTAR": 0.0021223911, "MEAN_MOTION_DOT": 3.05e-05, "MEAN_MOTION_DDOT": 0}, "tle": {"line1": "1 35701U 93036APW 25340.24858361  .00003050  00000+0  21224-2 0  9998", "line2": "2 35701  74.0028 313.2955 0289720 164.0681 196.9800 13.80843435620696"}}, "geometry": {"type": "Point", "coordinates": [85.15071856288584, 50.29509419936866]}}, {"type": "Feature", "properties": {"norad_id": 35703, "name": "COSMOS 2251 DEB", "group": "cosmos-2251-debris", "lat": 7.054166103960533, "lon": -159.52851188300787, "alt_km": 592.7703286399592, "timestamp": "2025-12-22T20:43:46.244616+00:00", "meta": {"OBJECT_NAME": "COSMOS 2251 DEB", "OBJECT_ID": "1993-036APY", "EPOCH": "2025-12-21T19:48:02.001024", "MEAN_MOTION": 14.90447063, "ECCENTRICITY": 0.00644399, "INCLINATION": 74.0415, "RA_OF_ASC_NODE": 24.5791, "ARG_OF_PERICENTER": 91.498, "MEAN_ANOMALY": 269.3585, "EPHEMERIS_TYPE": 0, "CLASSIFICATION_TYPE": "U", "NORAD_CAT_ID": 35703, "ELEMENT_SET_NO": 999, "REV_AT_EPOCH": 66751, "BSTAR": 0.00048186559, "MEAN_MOTION_DOT": 4.852e-05, "MEAN_MOTION_DDOT": 0}, "tle": {"line1": "1 35703U 93036APY 25355.82502316  .00004852  00000+0  48187-3 0  9995", "line2": "2 35703  74.0415  24.5791 0064439  91.4980 269.3585 14.90447063667517"}}, "geometry": {"type": "Point", "coordinates": [-159.52851188300787, 7.054166103960533]}}]}